

*******************************************************************************
Ephemeris / WWW_USER Thu May  4 19:11:16 2023 Pasadena, USA      / Horizons
*******************************************************************************
Target body name: ACE (spacecraft) (-92)          {source: ACE_merged}
Center body name: Sun (10)                        {source: DE441}
Center-site name: BODY CENTER
*******************************************************************************
Start time      : A.D. 2006-Jul-02 00:01:05.1851 TDB
Stop  time      : A.D. 2023-Jan-01 00:00:00.0000 TDB
Step-size       : 4320 minutes
*******************************************************************************
Center geodetic : 0.0, 0.0, 0.0                   {E-lon(deg),Lat(deg),Alt(km)}
Center cylindric: 0.0, 0.0, 0.0                   {E-lon(deg),Dxy(km),Dz(km)}
Center radii    : 696000.0, 696000.0, 696000.0 km {Equator_a, b, pole_c}
Output units    : KM-S
Calendar mode   : Mixed Julian/Gregorian
Output type     : GEOMETRIC cartesian states
Output format   : 1 (position only)
Reference frame : Ecliptic of J2000.0
*******************************************************************************
            JDTDB,            Calendar Date (TDB),                      X,                      Y,                      Z,
**************************************************************************************************************************
$$SOE
2454953.500754457, A.D. 2009-May-02 00:01:05.1851, -1.114429099263289E+08, -9.929913270135167E+07, -8.407895241034031E+04,
2454956.500754457, A.D. 2009-May-05 00:01:05.1851, -1.063440676354540E+08, -1.049104452519418E+08, -7.016432576372474E+04,
2454959.500754457, A.D. 2009-May-08 00:01:05.1851, -1.009704934663517E+08, -1.102479443086719E+08, -5.549602926428616E+04,
2454962.500754457, A.D. 2009-May-11 00:01:05.1851, -9.533693800383808E+07, -1.152985947249759E+08, -4.021865518635511E+04,
2454965.500754457, A.D. 2009-May-14 00:01:05.1851, -8.945870205583066E+07, -1.200501644063804E+08, -2.448830955333263E+04,
2454968.500754457, A.D. 2009-May-17 00:01:05.1851, -8.335159838959663E+07, -1.244912491633676E+08, -8.467641037151217E+03,
2454971.500754457, A.D. 2009-May-20 00:01:05.1851, -7.703187009670620E+07, -1.286113019841524E+08,  7.666993231527507E+03,
2454974.500754457, A.D. 2009-May-23 00:01:05.1851, -7.051621846481369E+07, -1.324006551966417E+08,  2.374385408917814E+04,
2454977.500754457, A.D. 2009-May-26 00:01:05.1851, -6.382174288172626E+07, -1.358505086776387E+08,  3.960597142127901E+04,
2454980.500754457, A.D. 2009-May-29 00:01:05.1851, -5.696584307341973E+07, -1.389528730214483E+08,  5.503204558636993E+04,
2454983.500754457, A.D. 2009-Jun-01 00:01:05.1851, -4.996618417973080E+07, -1.417006489642922E+08,  6.986035000890493E+04,
2454986.500754457, A.D. 2009-Jun-04 00:01:05.1851, -4.284068910758562E+07, -1.440876374602782E+08,  8.392542604128271E+04,
2454989.500754457, A.D. 2009-Jun-07 00:01:05.1851, -3.560748751197056E+07, -1.461085071624725E+08,  9.704214622363448E+04,
2454992.500754457, A.D. 2009-Jun-10 00:01:05.1851, -2.828489808256401E+07, -1.477587966987406E+08,  1.090597288304046E+05,
2454995.500754457, A.D. 2009-Jun-13 00:01:05.1851, -2.089136873396683E+07, -1.490348912660479E+08,  1.198329485974833E+05,
2454998.500754457, A.D. 2009-Jun-16 00:01:05.1851, -1.344545246813431E+07, -1.499340354446709E+08,  1.292372443814576E+05,
2455001.500754457, A.D. 2009-Jun-19 00:01:05.1851, -5.965733579857902E+06, -1.504543225317808E+08,  1.371582220662832E+05,
2455004.500754457, A.D. 2009-Jun-22 00:01:05.1851,  1.529140466417984E+06, -1.505947467767285E+08,  1.435062662413493E+05,
2455007.500754457, A.D. 2009-Jun-25 00:01:05.1851,  9.020482817819659E+06, -1.503551820323271E+08,  1.482076261229217E+05,
2455010.500754457, A.D. 2009-Jun-28 00:01:05.1851,  1.648963406375167E+07, -1.497362967467951E+08,  1.512130912665501E+05,
2455013.500754457, A.D. 2009-Jul-01 00:01:05.1851,  2.391798333513755E+07, -1.487396171393149E+08,  1.525025616471097E+05,
2455016.500754457, A.D. 2009-Jul-04 00:01:05.1851,  3.128701559124933E+07, -1.473675537735509E+08,  1.520747324663997E+05,
2455019.500754457, A.D. 2009-Jul-07 00:01:05.1851,  3.857836511320799E+07, -1.456236083237256E+08,  1.499167378167510E+05,
2455022.500754457, A.D. 2009-Jul-10 00:01:05.1851,  4.577366618582607E+07, -1.435115750118655E+08,  1.461196843686998E+05,
2455025.500754457, A.D. 2009-Jul-13 00:01:05.1851,  5.285484623574153E+07, -1.410366067938381E+08,  1.407169108691663E+05,
2455028.500754457, A.D. 2009-Jul-16 00:01:05.1851,  5.980401050578318E+07, -1.382045560668988E+08,  1.337866910001859E+05,
2455031.500754457, A.D. 2009-Jul-19 00:01:05.1851,  6.660353815167223E+07, -1.350221339113158E+08,  1.254092830198035E+05,
2455034.500754457, A.D. 2009-Jul-22 00:01:05.1851,  7.323608994253281E+07, -1.314969195985406E+08,  1.157192234156206E+05,
2455037.500754457, A.D. 2009-Jul-25 00:01:05.1851,  7.968468624714056E+07, -1.276373656795553E+08,  1.048147308331132E+05,
2455040.500754457, A.D. 2009-Jul-28 00:01:05.1851,  8.593267938844751E+07, -1.234527436521547E+08,  9.282356774110347E+04,
2455043.500754457, A.D. 2009-Jul-31 00:01:05.1851,  9.196385662276946E+07, -1.189531316505677E+08,  7.987325181227177E+04,
2455046.500754457, A.D. 2009-Aug-03 00:01:05.1851,  9.776246639988887E+07, -1.141494260302586E+08,  6.613167163791507E+04,
2455049.500754457, A.D. 2009-Aug-06 00:01:05.1851,  1.033132820353647E+08, -1.090533445780421E+08,  5.173319041942805E+04,
2455052.500754457, A.D. 2009-Aug-09 00:01:05.1851,  1.086016050333609E+08, -1.036773844083045E+08,  3.682709476893395E+04,
2455055.500754457, A.D. 2009-Aug-12 00:01:05.1851,  1.136133107384860E+08, -9.803479232224940E+07,  2.156554505739361E+04,
2455058.500754457, A.D. 2009-Aug-15 00:01:05.1851,  1.183349021818780E+08, -9.213954576571797E+07,  6.090646413601935E+03,
2455061.500754457, A.D. 2009-Aug-18 00:01:05.1851,  1.227535399899829E+08, -8.600629715498814E+07, -9.422307002414018E+03,
2455064.500754457, A.D. 2009-Aug-21 00:01:05.1851,  1.268571313999604E+08, -7.965040284030683E+07, -2.483230110279471E+04,
2455067.500754457, A.D. 2009-Aug-24 00:01:05.1851,  1.306343138233472E+08, -7.308787900316158E+07, -3.999252391247824E+04,
2455070.500754457, A.D. 2009-Aug-27 00:01:05.1851,  1.340744726172536E+08, -6.633533692248455E+07, -5.475949370958284E+04,
2455073.500754457, A.D. 2009-Aug-30 00:01:05.1851,  1.371678181181701E+08, -5.940994225296578E+07, -6.899333151371032E+04,
2455076.500754457, A.D. 2009-Sep-02 00:01:05.1851,  1.399054318479532E+08, -5.232940302858575E+07, -8.255969164948165E+04,
2455079.500754457, A.D. 2009-Sep-05 00:01:05.1851,  1.422793004336236E+08, -4.511193339652428E+07, -9.538651371222921E+04,
2455082.500754457, A.D. 2009-Sep-08 00:01:05.1851,  1.442822583571674E+08, -3.777620271282600E+07, -1.072520916380715E+05,
2455085.500754457, A.D. 2009-Sep-11 00:01:05.1851,  1.459081206195704E+08, -3.034127828701598E+07, -1.180926178237107E+05,
2455088.500754457, A.D. 2009-Sep-14 00:01:05.1851,  1.471516484931941E+08, -2.282657715837364E+07, -1.278068175623240E+05,
2455091.500754457, A.D. 2009-Sep-17 00:01:05.1851,  1.480086093198109E+08, -1.525181716233049E+07, -1.363015560443997E+05,
2455094.500754457, A.D. 2009-Sep-20 00:01:05.1851,  1.484758042742658E+08, -7.636984557650440E+06, -1.434923494753339E+05,
2455097.500754457, A.D. 2009-Sep-23 00:01:05.1851,  1.485510532689519E+08, -2.266145674133375E+03, -1.492334278541852E+05,
2455100.500754457, A.D. 2009-Sep-26 00:01:05.1851,  1.482331774589429E+08,  7.631958986317076E+06, -1.536136491350480E+05,
2455103.500754457, A.D. 2009-Sep-29 00:01:05.1851,  1.475220957650435E+08,  1.524528980924231E+07, -1.565151978334850E+05,
2455106.500754457, A.D. 2009-Oct-02 00:01:05.1851,  1.464188103696038E+08,  2.281726508887577E+07, -1.579013376068715E+05,
2455109.500754457, A.D. 2009-Oct-05 00:01:05.1851,  1.449254027074023E+08,  3.032743653456697E+07, -1.577485134228691E+05,
2455112.500754457, A.D. 2009-Oct-08 00:01:05.1851,  1.430450243881907E+08,  3.775543293951651E+07, -1.560479868645463E+05,
2455115.500754457, A.D. 2009-Oct-11 00:01:05.1851,  1.407818950385535E+08,  4.508102862723491E+07, -1.528060060227755E+05,
2455118.500754457, A.D. 2009-Oct-14 00:01:05.1851,  1.381413108287331E+08,  5.228421285286478E+07, -1.480423481277637E+05,
2455121.500754457, A.D. 2009-Oct-17 00:01:05.1851,  1.351290491600751E+08,  5.934510585537545E+07, -1.417937044028789E+05,
2455124.500754457, A.D. 2009-Oct-20 00:01:05.1851,  1.317536786233567E+08,  6.624453897951242E+07, -1.340988449167237E+05,
2455127.500754457, A.D. 2009-Oct-23 00:01:05.1851,  1.280231626963118E+08,  7.296332967508376E+07, -1.250249209697545E+05,
2455130.500754457, A.D. 2009-Oct-26 00:01:05.1851,  1.239469744727539E+08,  7.948287950265959E+07, -1.146520035606585E+05,
2455133.500754457, A.D. 2009-Oct-29 00:01:05.1851,  1.195356063297307E+08,  8.578511002763726E+07, -1.030731285781376E+05,
2455136.500754457, A.D. 2009-Nov-01 00:01:05.1851,  1.148005396882539E+08,  9.185250178670520E+07, -9.039567248332500E+04,
2455139.500754457, A.D. 2009-Nov-04 00:01:05.1851,  1.097541962859935E+08,  9.766814203295994E+07, -7.674253780313581E+04,
2455142.500754457, A.D. 2009-Nov-07 00:01:05.1851,  1.044098891093050E+08,  1.032157787270779E+08, -6.225200333605707E+04,
2455145.500754457, A.D. 2009-Nov-10 00:01:05.1851,  9.878177991641082E+07,  1.084798806933599E+08, -4.707660467375815E+04,
2455148.500754457, A.D. 2009-Nov-13 00:01:05.1851,  9.288489919724821E+07,  1.134456686955794E+08, -3.138644122238457E+04,
2455151.500754457, A.D. 2009-Nov-16 00:01:05.1851,  8.673493671545777E+07,  1.180992918462577E+08, -1.534704911148548E+04,
2455154.500754457, A.D. 2009-Nov-19 00:01:05.1851,  8.034846468019503E+07,  1.224276526393501E+08,  8.435881993994117E+02,
2455157.500754457, A.D. 2009-Nov-22 00:01:05.1851,  7.374266160411288E+07,  1.264185151369780E+08,  1.699480865317583E+04,
